[
  {
    "dialCode": "93",
    "priority": 0,
    "areaCodes": [],
    "label": "Afghanistan (‫افغانستان‬‎)",
    "id": "af",
    "currencyName": "Afghani",
    "currencyCode": "AFN",
    "icn": "flags/af.png"
  },
  {
    "dialCode": "355",
    "priority": 0,
    "areaCodes": [],
    "label": "Albania (Shqipëri)",
    "id": "al",
    "currencyName": "Lek",
    "currencyCode": "ALL",
    "icn": "flags/al.png"
  },
  {
    "dialCode": "213",
    "priority": 0,
    "areaCodes": [],
    "label": "Algeria (‫الجزائر‬‎)",
    "id": "dz",
    "currencyName": "Algerian Dinar",
    "currencyCode": "DZD",
    "icn": "flags/dz.png"
  },
  {
    "dialCode": "1684",
    "priority": 0,
    "areaCodes": [],
    "label": "American Samoa",
    "id": "as",
    "currencyName": "US Dollar",
    "currencyCode": "USD",
    "icn": "flags/as.png"
  },
  {
    "dialCode": "376",
    "priority": 0,
    "areaCodes": [],
    "label": "Andorra",
    "id": "ad",
    "currencyName": "Euro",
    "currencyCode": "EUR",
    "icn": "flags/ad.png"
  },
  {
    "dialCode": "244",
    "priority": 0,
    "areaCodes": [],
    "label": "Angola",
    "id": "ao",
    "currencyName": "Kwanza",
    "currencyCode": "AOA",
    "icn": "flags/ao.png"
  },
  {
    "dialCode": "1264",
    "priority": 0,
    "areaCodes": [],
    "label": "Anguilla",
    "id": "ai",
    "currencyName": "East Caribbean Dollar",
    "currencyCode": "XCD",
    "icn": "flags/ai.png"
  },
  {
    "dialCode": "1268",
    "priority": 0,
    "areaCodes": [],
    "label": "Antigua and Barbuda",
    "id": "ag",
    "currencyName": "East Caribbean Dollar",
    "currencyCode": "XCD",
    "icn": "flags/ag.png"
  },
  {
    "dialCode": "54",
    "priority": 0,
    "areaCodes": [],
    "label": "Argentina",
    "id": "ar",
    "currencyName": "Argentine Peso",
    "currencyCode": "ARS",
    "icn": "flags/ar.png"
  },
  {
    "dialCode": "374",
    "priority": 0,
    "areaCodes": [],
    "label": "Armenia (Հայաստան)",
    "id": "am",
    "currencyName": "Armenian Dram",
    "currencyCode": "AMD",
    "icn": "flags/am.png"
  },
  {
    "dialCode": "297",
    "priority": 0,
    "areaCodes": [],
    "label": "Aruba",
    "id": "aw",
    "currencyName": "Aruban Florin",
    "currencyCode": "AWG",
    "icn": "flags/aw.png"
  },
  {
    "dialCode": "61",
    "priority": 0,
    "areaCodes": [],
    "label": "Australia",
    "id": "au",
    "currencyName": "Australian Dollar",
    "currencyCode": "AUD",
    "icn": "flags/au.png"
  },
  {
    "dialCode": "43",
    "priority": 0,
    "areaCodes": [],
    "label": "Austria (Österreich)",
    "id": "at",
    "currencyName": "Euro",
    "currencyCode": "EUR",
    "icn": "flags/at.png"
  },
  {
    "dialCode": "994",
    "priority": 0,
    "areaCodes": [],
    "label": "Azerbaijan (Azərbaycan)",
    "id": "az",
    "currencyName": "Azerbaijan Manat",
    "currencyCode": "AZN",
    "icn": "flags/az.png"
  },
  {
    "dialCode": "1242",
    "priority": 0,
    "areaCodes": [],
    "label": "Bahamas",
    "id": "bs",
    "currencyName": "Bahamian Dollar",
    "currencyCode": "BSD",
    "icn": "flags/bs.png"
  },
  {
    "dialCode": "973",
    "priority": 0,
    "areaCodes": [],
    "label": "Bahrain (‫البحرين‬‎)",
    "id": "bh",
    "currencyName": "Bahraini Dinar",
    "currencyCode": "BHD",
    "icn": "flags/bh.png"
  },
  {
    "dialCode": "880",
    "priority": 0,
    "areaCodes": [],
    "label": "Bangladesh (বাংলাদেশ)",
    "id": "bd",
    "currencyName": "Taka",
    "currencyCode": "BDT",
    "icn": "flags/bd.png"
  },
  {
    "dialCode": "1246",
    "priority": 0,
    "areaCodes": [],
    "label": "Barbados",
    "id": "bb",
    "currencyName": "Barbados Dollar",
    "currencyCode": "BBD",
    "icn": "flags/bb.png"
  },
  {
    "dialCode": "375",
    "priority": 0,
    "areaCodes": [],
    "label": "Belarus (Беларусь)",
    "id": "by",
    "currencyName": "Belarusian Ruble",
    "currencyCode": "BYN",
    "icn": "flags/by.png"
  },
  {
    "dialCode": "32",
    "priority": 0,
    "areaCodes": [],
    "label": "Belgium (België)",
    "id": "be",
    "currencyName": "Euro",
    "currencyCode": "EUR",
    "icn": "flags/be.png"
  },
  {
    "dialCode": "501",
    "priority": 0,
    "areaCodes": [],
    "label": "Belize",
    "id": "bz",
    "currencyName": "Belize Dollar",
    "currencyCode": "BZD",
    "icn": "flags/bz.png"
  },
  {
    "dialCode": "229",
    "priority": 0,
    "areaCodes": [],
    "label": "Benin (Bénin)",
    "id": "bj",
    "currencyName": "CFA Franc BCEAO",
    "currencyCode": "XOF",
    "icn": "flags/bj.png"
  },
  {
    "dialCode": "1441",
    "priority": 0,
    "areaCodes": [],
    "label": "Bermuda",
    "id": "bm",
    "currencyName": "Bermudian Dollar",
    "currencyCode": "BMD",
    "icn": "flags/bm.png"
  },
  {
    "dialCode": "975",
    "priority": 0,
    "areaCodes": [],
    "label": "Bhutan (འབྲུག)",
    "id": "bt",
    "currencyName": "Indian Rupee",
    "currencyCode": "INR",
    "icn": "flags/bt.png"
  },
  {
    "dialCode": "591",
    "priority": 0,
    "areaCodes": [],
    "label": "Bolivia",
    "id": "bo",
    "currencyName": "Boliviano",
    "currencyCode": "BOB",
    "icn": "flags/bo.png"
  },
  {
    "dialCode": "387",
    "priority": 0,
    "areaCodes": [],
    "label": "Bosnia and Herzegovina (Босна и Херцеговина)",
    "id": "ba",
    "currencyName": "Convertible Mark",
    "currencyCode": "BAM",
    "icn": "flags/ba.png"
  },
  {
    "dialCode": "267",
    "priority": 0,
    "areaCodes": [],
    "label": "Botswana",
    "id": "bw",
    "currencyName": "Pula",
    "currencyCode": "BWP",
    "icn": "flags/bw.png"
  },
  {
    "dialCode": "55",
    "priority": 0,
    "areaCodes": [],
    "label": "Brazil (Brasil)",
    "id": "br",
    "currencyName": "Brazilian Real",
    "currencyCode": "BRL",
    "icn": "flags/br.png"
  },
  {
    "dialCode": "246",
    "priority": 0,
    "areaCodes": [],
    "label": "British Indian Ocean Territory",
    "id": "io",
    "currencyName": "US Dollar",
    "currencyCode": "USD",
    "icn": "flags/io.png"
  },
  {
    "dialCode": "1284",
    "priority": 0,
    "areaCodes": [],
    "label": "British Virgin Islands",
    "id": "vg",
    "currencyName": "US Dollar",
    "currencyCode": "USD",
    "icn": "flags/vg.png"
  },
  {
    "dialCode": "673",
    "priority": 0,
    "areaCodes": [],
    "label": "Brunei",
    "id": "bn",
    "currencyName": "Brunei Dollar",
    "currencyCode": "BND",
    "icn": "flags/bn.png"
  },
  {
    "dialCode": "359",
    "priority": 0,
    "areaCodes": [],
    "label": "Bulgaria (България)",
    "id": "bg",
    "currencyName": "Bulgarian Lev",
    "currencyCode": "BGN",
    "icn": "flags/bg.png"
  },
  {
    "dialCode": "226",
    "priority": 0,
    "areaCodes": [],
    "label": "Burkina Faso",
    "id": "bf",
    "currencyName": "CFA Franc BCEAO",
    "currencyCode": "XOF",
    "icn": "flags/bf.png"
  },
  {
    "dialCode": "257",
    "priority": 0,
    "areaCodes": [],
    "label": "Burundi (Uburundi)",
    "id": "bi",
    "currencyName": "Burundi Franc",
    "currencyCode": "BIF",
    "icn": "flags/bi.png"
  },
  {
    "dialCode": "855",
    "priority": 0,
    "areaCodes": [],
    "label": "Cambodia (កម្ពុជា)",
    "id": "kh",
    "currencyName": "Riel",
    "currencyCode": "KHR",
    "icn": "flags/kh.png"
  },
  {
    "dialCode": "237",
    "priority": 0,
    "areaCodes": [],
    "label": "Cameroon (Cameroun)",
    "id": "cm",
    "currencyName": "CFA Franc BEAC",
    "currencyCode": "XAF",
    "icn": "flags/cm.png"
  },
  {
    "dialCode": "1",
    "priority": 1,
    "areaCodes": [
      "204",
      "226",
      "236",
      "249",
      "250",
      "289",
      "306",
      "343",
      "365",
      "387",
      "403",
      "416",
      "418",
      "431",
      "437",
      "438",
      "450",
      "506",
      "514",
      "519",
      "548",
      "579",
      "581",
      "587",
      "604",
      "613",
      "639",
      "647",
      "672",
      "705",
      "709",
      "742",
      "778",
      "780",
      "782",
      "807",
      "819",
      "825",
      "867",
      "873",
      "902",
      "905"
    ],
    "label": "Canada",
    "id": "ca",
    "currencyName": "Canadian Dollar",
    "currencyCode": "CAD",
    "icn": "flags/ca.png"
  },
  {
    "dialCode": "238",
    "priority": 0,
    "areaCodes": [],
    "label": "Cape Verde (Kabu Verdi)",
    "id": "cv",
    "currencyName": "Cabo Verde Escudo",
    "currencyCode": "CVE",
    "icn": "flags/cv.png"
  },
  {
    "dialCode": "599",
    "priority": 1,
    "areaCodes": [],
    "label": "Caribbean Netherlands",
    "id": "bq",
    "currencyName": "Euro",
    "currencyCode": "EUR",
    "icn": "flags/bq.png"
  },
  {
    "dialCode": "1345",
    "priority": 0,
    "areaCodes": [],
    "label": "Cayman Islands",
    "id": "ky",
    "currencyName": "Cayman Islands Dollar",
    "currencyCode": "KYD",
    "icn": "flags/ky.png"
  },
  {
    "dialCode": "236",
    "priority": 0,
    "areaCodes": [],
    "label": "Central African Republic (République centrafricaine)",
    "id": "cf",
    "currencyName": "CFA Franc BEAC",
    "currencyCode": "XAF",
    "icn": "flags/cf.png"
  },
  {
    "dialCode": "235",
    "priority": 0,
    "areaCodes": [],
    "label": "Chad (Tchad)",
    "id": "td",
    "currencyName": "CFA Franc BEAC",
    "currencyCode": "XAF",
    "icn": "flags/td.png"
  },
  {
    "dialCode": "56",
    "priority": 0,
    "areaCodes": [],
    "label": "Chile",
    "id": "cl",
    "currencyName": "Chilean Peso",
    "currencyCode": "CLP",
    "icn": "flags/cl.png"
  },
  {
    "dialCode": "86",
    "priority": 0,
    "areaCodes": [],
    "label": "China (中国)",
    "id": "cn",
    "currencyName": "Yuan Renminbi",
    "currencyCode": "CNY",
    "icn": "flags/cn.png"
  },
  {
    "dialCode": "61",
    "priority": 2,
    "areaCodes": [],
    "label": "Christmas Island",
    "id": "cx",
    "currencyName": "Australian Dollar",
    "currencyCode": "AUD",
    "icn": "flags/cx.png"
  },
  {
    "dialCode": "61",
    "priority": 1,
    "areaCodes": [],
    "label": "Cocos (Keeling) Islands",
    "id": "cc",
    "currencyName": "Australian Dollar",
    "currencyCode": "AUD",
    "icn": "flags/cc.png"
  },
  {
    "dialCode": "57",
    "priority": 0,
    "areaCodes": [],
    "label": "Colombia",
    "id": "co",
    "currencyName": "Colombian Peso",
    "currencyCode": "COP",
    "icn": "flags/co.png"
  },
  {
    "dialCode": "269",
    "priority": 0,
    "areaCodes": [],
    "label": "Comoros (‫جزر القمر‬‎)",
    "id": "km",
    "currencyName": "Comorian Franc ",
    "currencyCode": "KMF",
    "icn": "flags/km.png"
  },
  {
    "dialCode": "243",
    "priority": 0,
    "areaCodes": [],
    "label": "Congo (DRC) (Jamhuri ya Kidemokrasia ya Kongo)",
    "id": "cd",
    "currencyName": "Congolese Franc",
    "currencyCode": "CDF",
    "icn": "flags/cd.png"
  },
  {
    "dialCode": "242",
    "priority": 0,
    "areaCodes": [],
    "label": "Congo (Republic) (Congo-Brazzaville)",
    "id": "cg",
    "currencyName": "CFA Franc BEAC",
    "currencyCode": "XAF",
    "icn": "flags/cg.png"
  },
  {
    "dialCode": "682",
    "priority": 0,
    "areaCodes": [],
    "label": "Cook Islands",
    "id": "ck",
    "currencyName": "New Zealand Dollar",
    "currencyCode": "NZD",
    "icn": "flags/ck.png"
  },
  {
    "dialCode": "506",
    "priority": 0,
    "areaCodes": [],
    "label": "Costa Rica",
    "id": "cr",
    "currencyName": "Costa Rican Colon",
    "currencyCode": "CRC",
    "icn": "flags/cr.png"
  },
  {
    "dialCode": "225",
    "priority": 0,
    "areaCodes": [],
    "label": "Côte d’Ivoire",
    "id": "ci",
    "currencyName": "CFA Franc BCEAO",
    "currencyCode": "XOF",
    "icn": "flags/ci.png"
  },
  {
    "dialCode": "385",
    "priority": 0,
    "areaCodes": [],
    "label": "Croatia (Hrvatska)",
    "id": "hr",
    "currencyName": "Kuna",
    "currencyCode": "HRK",
    "icn": "flags/hr.png"
  },
  {
    "dialCode": "53",
    "priority": 0,
    "areaCodes": [],
    "label": "Cuba",
    "id": "cu",
    "currencyName": "Cuban Peso",
    "currencyCode": "CUP",
    "icn": "flags/cu.png"
  },
  {
    "dialCode": "599",
    "priority": 0,
    "areaCodes": [],
    "label": "Curaçao",
    "id": "cw",
    "currencyName": "Netherlands Antillean Guilder",
    "currencyCode": "ANG",
    "icn": "flags/cw.png"
  },
  {
    "dialCode": "357",
    "priority": 0,
    "areaCodes": [],
    "label": "Cyprus (Κύπρος)",
    "id": "cy",
    "currencyName": "Euro",
    "currencyCode": "EUR",
    "icn": "flags/cy.png"
  },
  {
    "dialCode": "420",
    "priority": 0,
    "areaCodes": [],
    "label": "Czech Republic (Česká republika)",
    "id": "cz",
    "currencyName": "Czech Koruna",
    "currencyCode": "CZK",
    "icn": "flags/cz.png"
  },
  {
    "dialCode": "45",
    "priority": 0,
    "areaCodes": [],
    "label": "Denmark (Danmark)",
    "id": "dk",
    "currencyName": "Danish Krone",
    "currencyCode": "DKK",
    "icn": "flags/dk.png"
  },
  {
    "dialCode": "253",
    "priority": 0,
    "areaCodes": [],
    "label": "Djibouti",
    "id": "dj",
    "currencyName": "Djibouti Franc",
    "currencyCode": "DJF",
    "icn": "flags/dj.png"
  },
  {
    "dialCode": "1767",
    "priority": 0,
    "areaCodes": [],
    "label": "Dominica",
    "id": "dm",
    "currencyName": "East Caribbean Dollar",
    "currencyCode": "XCD",
    "icn": "flags/dm.png"
  },
  {
    "dialCode": "1",
    "priority": 2,
    "areaCodes": ["809", "829", "849"],
    "label": "Dominican Republic (República Dominicana)",
    "id": "do",
    "currencyName": "East Caribbean Dollar",
    "currencyCode": "XCD",
    "icn": "flags/do.png"
  },
  {
    "dialCode": "593",
    "priority": 0,
    "areaCodes": [],
    "label": "Ecuador",
    "id": "ec",
    "currencyName": "US Dollar",
    "currencyCode": "USD",
    "icn": "flags/ec.png"
  },
  {
    "dialCode": "20",
    "priority": 0,
    "areaCodes": [],
    "label": "Egypt (‫مصر‬‎)",
    "id": "eg",
    "currencyName": "Egyptian Pound",
    "currencyCode": "EGP",
    "icn": "flags/eg.png"
  },
  {
    "dialCode": "503",
    "priority": 0,
    "areaCodes": [],
    "label": "El Salvador",
    "id": "sv",
    "currencyName": "El Salvador Colon",
    "currencyCode": "SVC",
    "icn": "flags/sv.png"
  },
  {
    "dialCode": "240",
    "priority": 0,
    "areaCodes": [],
    "label": "Equatorial Guinea (Guinea Ecuatorial)",
    "id": "gq",
    "currencyName": "CFA Franc BEAC",
    "currencyCode": "XAF",
    "icn": "flags/gq.png"
  },
  {
    "dialCode": "291",
    "priority": 0,
    "areaCodes": [],
    "label": "Eritrea",
    "id": "er",
    "currencyName": "Nakfa",
    "currencyCode": "ERN",
    "icn": "flags/er.png"
  },
  {
    "dialCode": "372",
    "priority": 0,
    "areaCodes": [],
    "label": "Estonia (Eesti)",
    "id": "ee",
    "currencyName": "Euro",
    "currencyCode": "EUR",
    "icn": "flags/ee.png"
  },
  {
    "dialCode": "251",
    "priority": 0,
    "areaCodes": [],
    "label": "Ethiopia",
    "id": "et",
    "currencyName": "Ethiopian Birr",
    "currencyCode": "ETB",
    "icn": "flags/et.png"
  },
  {
    "dialCode": "500",
    "priority": 0,
    "areaCodes": [],
    "label": "Falkland Islands (Islas Malvinas)",
    "id": "fk",
    "currencyName": "Falkland Islands Pound",
    "currencyCode": "FKP",
    "icn": "flags/fk.png"
  },
  {
    "dialCode": "298",
    "priority": 0,
    "areaCodes": [],
    "label": "Faroe Islands (Føroyar)",
    "id": "fo",
    "currencyName": "Danish Krone",
    "currencyCode": "DKK",
    "icn": "flags/fo.png"
  },
  {
    "dialCode": "679",
    "priority": 0,
    "areaCodes": [],
    "label": "Fiji",
    "id": "fj",
    "currencyName": "Fiji Dollar",
    "currencyCode": "FJD",
    "icn": "flags/fj.png"
  },
  {
    "dialCode": "358",
    "priority": 0,
    "areaCodes": [],
    "label": "Finland (Suomi)",
    "id": "fi",
    "currencyName": "Euro",
    "currencyCode": "EUR",
    "icn": "flags/fi.png"
  },
  {
    "dialCode": "33",
    "priority": 0,
    "areaCodes": [],
    "label": "France",
    "id": "fr",
    "currencyName": "Euro",
    "currencyCode": "EUR",
    "icn": "flags/fr.png"
  },
  {
    "dialCode": "594",
    "priority": 0,
    "areaCodes": [],
    "label": "French Guiana (Guyane française)",
    "id": "gf",
    "currencyName": "Euro",
    "currencyCode": "EUR",
    "icn": "flags/gf.png"
  },
  {
    "dialCode": "689",
    "priority": 0,
    "areaCodes": [],
    "label": "French Polynesia (Polynésie française)",
    "id": "pf",
    "currencyName": "CFP Franc",
    "currencyCode": "XPF",
    "icn": "flags/pf.png"
  },
  {
    "dialCode": "241",
    "priority": 0,
    "areaCodes": [],
    "label": "Gabon",
    "id": "ga",
    "currencyName": "CFA Franc BEAC",
    "currencyCode": "XAF",
    "icn": "flags/ga.png"
  },
  {
    "dialCode": "220",
    "priority": 0,
    "areaCodes": [],
    "label": "Gambia",
    "id": "gm",
    "currencyName": "Dalasi",
    "currencyCode": "GMD",
    "icn": "flags/gm.png"
  },
  {
    "dialCode": "995",
    "priority": 0,
    "areaCodes": [],
    "label": "Georgia (საქართველო)",
    "id": "ge",
    "currencyName": "Lari",
    "currencyCode": "GEL",
    "icn": "flags/ge.png"
  },
  {
    "dialCode": "49",
    "priority": 0,
    "areaCodes": [],
    "label": "Germany (Deutschland)",
    "id": "de",
    "currencyName": "Euro",
    "currencyCode": "EUR",
    "icn": "flags/de.png"
  },
  {
    "dialCode": "233",
    "priority": 0,
    "areaCodes": [],
    "label": "Ghana (Gaana)",
    "id": "gh",
    "currencyName": "Ghana Cedi",
    "currencyCode": "GHS",
    "icn": "flags/gh.png"
  },
  {
    "dialCode": "350",
    "priority": 0,
    "areaCodes": [],
    "label": "Gibraltar",
    "id": "gi",
    "currencyName": "Gibraltar Pound",
    "currencyCode": "GIP",
    "icn": "flags/gi.png"
  },
  {
    "dialCode": "30",
    "priority": 0,
    "areaCodes": [],
    "label": "Greece (Ελλάδα)",
    "id": "gr",
    "currencyName": "Euro",
    "currencyCode": "EUR",
    "icn": "flags/gr.png"
  },
  {
    "dialCode": "299",
    "priority": 0,
    "areaCodes": [],
    "label": "Greenland (Kalaallit Nunaat)",
    "id": "gl",
    "currencyName": "Danish Krone",
    "currencyCode": "DKK",
    "icn": "flags/gl.png"
  },
  {
    "dialCode": "1473",
    "priority": 0,
    "areaCodes": [],
    "label": "Grenada",
    "id": "gd",
    "currencyName": "East Caribbean Dollar",
    "currencyCode": "XCD",
    "icn": "flags/gd.png"
  },
  {
    "dialCode": "590",
    "priority": 0,
    "areaCodes": [],
    "label": "Guadeloupe",
    "id": "gp",
    "currencyName": "Euro",
    "currencyCode": "EUR",
    "icn": "flags/gp.png"
  },
  {
    "dialCode": "1671",
    "priority": 0,
    "areaCodes": [],
    "label": "Guam",
    "id": "gu",
    "currencyName": "US Dollar",
    "currencyCode": "USD",
    "icn": "flags/gu.png"
  },
  {
    "dialCode": "502",
    "priority": 0,
    "areaCodes": [],
    "label": "Guatemala",
    "id": "gt",
    "currencyName": "Quetzal",
    "currencyCode": "GTQ",
    "icn": "flags/gt.png"
  },
  {
    "dialCode": "44",
    "priority": 1,
    "areaCodes": [],
    "label": "Guernsey",
    "id": "gg",
    "currencyName": "Pound Sterling",
    "currencyCode": "GBP",
    "icn": "flags/gg.png"
  },
  {
    "dialCode": "224",
    "priority": 0,
    "areaCodes": [],
    "label": "Guinea (Guinée)",
    "id": "gn",
    "currencyName": "Guinean Franc",
    "currencyCode": "GNF",
    "icn": "flags/gn.png"
  },
  {
    "dialCode": "245",
    "priority": 0,
    "areaCodes": [],
    "label": "Guinea-Bissau (Guiné Bissau)",
    "id": "gw",
    "currencyName": "Guinean Franc",
    "currencyCode": "GNF",
    "icn": "flags/gw.png"
  },
  {
    "dialCode": "592",
    "priority": 0,
    "areaCodes": [],
    "label": "Guyana",
    "id": "gy",
    "currencyName": "Guyana Dollar",
    "currencyCode": "GYD",
    "icn": "flags/gy.png"
  },
  {
    "dialCode": "509",
    "priority": 0,
    "areaCodes": [],
    "label": "Haiti",
    "id": "ht",
    "currencyName": "Gourde",
    "currencyCode": "HTG",
    "icn": "flags/ht.png"
  },
  {
    "dialCode": "504",
    "priority": 0,
    "areaCodes": [],
    "label": "Honduras",
    "id": "hn",
    "currencyName": "Lempira",
    "currencyCode": "HNL",
    "icn": "flags/hn.png"
  },
  {
    "dialCode": "852",
    "priority": 0,
    "areaCodes": [],
    "label": "Hong Kong (香港)",
    "id": "hk",
    "currencyName": "Hong Kong Dollar",
    "currencyCode": "HKD",
    "icn": "flags/hk.png"
  },
  {
    "dialCode": "36",
    "priority": 0,
    "areaCodes": [],
    "label": "Hungary (Magyarország)",
    "id": "hu",
    "currencyName": "Forint",
    "currencyCode": "HUF",
    "icn": "flags/hu.png"
  },
  {
    "dialCode": "354",
    "priority": 0,
    "areaCodes": [],
    "label": "Iceland (Ísland)",
    "id": "is",
    "currencyName": "Iceland Krona",
    "currencyCode": "ISK",
    "icn": "flags/is.png"
  },
  {
    "dialCode": "91",
    "priority": 0,
    "areaCodes": [],
    "label": "India (भारत)",
    "id": "in",
    "currencyName": "Indian Rupee",
    "currencyCode": "INR",
    "icn": "flags/in.png"
  },
  {
    "dialCode": "62",
    "priority": 0,
    "areaCodes": [],
    "label": "Indonesia",
    "id": "id",
    "currencyName": "Rupiah",
    "currencyCode": "IDR",
    "icn": "flags/id.png"
  },
  {
    "dialCode": "98",
    "priority": 0,
    "areaCodes": [],
    "label": "Iran (‫ایران‬‎)",
    "id": "ir",
    "currencyName": "Iranian Rial",
    "currencyCode": "IRR",
    "icn": "flags/ir.png"
  },
  {
    "dialCode": "964",
    "priority": 0,
    "areaCodes": [],
    "label": "Iraq (‫العراق‬‎)",
    "id": "iq",
    "currencyName": "Iraqi Dinar",
    "currencyCode": "IQD",
    "icn": "flags/iq.png"
  },
  {
    "dialCode": "353",
    "priority": 0,
    "areaCodes": [],
    "label": "Ireland",
    "id": "ie",
    "currencyName": "Euro",
    "currencyCode": "EUR",
    "icn": "flags/ie.png"
  },
  {
    "dialCode": "44",
    "priority": 2,
    "areaCodes": [],
    "label": "Isle of Man",
    "id": "im",
    "currencyName": "Pound Sterling",
    "currencyCode": "GBP",
    "icn": "flags/im.png"
  },
  {
    "dialCode": "972",
    "priority": 0,
    "areaCodes": [],
    "label": "Israel (‫ישראל‬‎)",
    "id": "il",
    "currencyName": "New Israeli Sheqel",
    "currencyCode": "ILS",
    "icn": "flags/il.png"
  },
  {
    "dialCode": "39",
    "priority": 0,
    "areaCodes": [],
    "label": "Italy (Italia)",
    "id": "it",
    "currencyName": "Euro",
    "currencyCode": "EUR",
    "icn": "flags/it.png"
  },
  {
    "dialCode": "1876",
    "priority": 0,
    "areaCodes": [],
    "label": "Jamaica",
    "id": "jm",
    "currencyName": "Jamaican Dollar",
    "currencyCode": "JMD",
    "icn": "flags/jm.png"
  },
  {
    "dialCode": "81",
    "priority": 0,
    "areaCodes": [],
    "label": "Japan (日本)",
    "id": "jp",
    "currencyName": "Yen",
    "currencyCode": "JPY",
    "icn": "flags/jp.png"
  },
  {
    "dialCode": "44",
    "priority": 3,
    "areaCodes": [],
    "label": "Jersey",
    "id": "je",
    "currencyName": "Pound Sterling",
    "currencyCode": "GBP",
    "icn": "flags/je.png"
  },
  {
    "dialCode": "962",
    "priority": 0,
    "areaCodes": [],
    "label": "Jordan (‫الأردن‬‎)",
    "id": "jo",
    "currencyName": "Jordanian Dinar",
    "currencyCode": "JOD",
    "icn": "flags/jo.png"
  },
  {
    "dialCode": "77",
    "priority": 1,
    "areaCodes": [],
    "label": "Kazakhstan (Казахстан)",
    "id": "kz",
    "currencyName": "Tenge",
    "currencyCode": "KZT",
    "icn": "flags/kz.png"
  },
  {
    "dialCode": "254",
    "priority": 0,
    "areaCodes": [],
    "label": "Kenya",
    "id": "ke",
    "currencyName": "Kenyan Shilling",
    "currencyCode": "KES",
    "icn": "flags/ke.png"
  },
  {
    "dialCode": "686",
    "priority": 0,
    "areaCodes": [],
    "label": "Kiribati",
    "id": "ki",
    "currencyName": "Australian Dollar",
    "currencyCode": "AUD",
    "icn": "flags/ki.png"
  },
  {
    "dialCode": "965",
    "priority": 0,
    "areaCodes": [],
    "label": "Kuwait (‫الكويت‬‎)",
    "id": "kw",
    "currencyName": "Kuwaiti Dinar",
    "currencyCode": "KWD",
    "icn": "flags/kw.png"
  },
  {
    "dialCode": "996",
    "priority": 0,
    "areaCodes": [],
    "label": "Kyrgyzstan (Кыргызстан)",
    "id": "kg",
    "currencyName": "Som",
    "currencyCode": "KGS",
    "icn": "flags/kg.png"
  },
  {
    "dialCode": "856",
    "priority": 0,
    "areaCodes": [],
    "label": "Laos (ລາວ)",
    "id": "la",
    "currencyName": "Lao Kip",
    "currencyCode": "LAK",
    "icn": "flags/la.png"
  },
  {
    "dialCode": "371",
    "priority": 0,
    "areaCodes": [],
    "label": "Latvia (Latvija)",
    "id": "lv",
    "currencyName": "Euro",
    "currencyCode": "EUR",
    "icn": "flags/lv.png"
  },
  {
    "dialCode": "961",
    "priority": 0,
    "areaCodes": [],
    "label": "Lebanon (‫لبنان‬‎)",
    "id": "lb",
    "currencyName": "Lebanese Pound",
    "currencyCode": "LBP",
    "icn": "flags/lb.png"
  },
  {
    "dialCode": "266",
    "priority": 0,
    "areaCodes": [],
    "label": "Lesotho",
    "id": "ls",
    "currencyName": "Loti",
    "currencyCode": "LSL",
    "icn": "flags/ls.png"
  },
  {
    "dialCode": "231",
    "priority": 0,
    "areaCodes": [],
    "label": "Liberia",
    "id": "lr",
    "currencyName": "Liberian Dollar",
    "currencyCode": "LRD",
    "icn": "flags/lr.png"
  },
  {
    "dialCode": "218",
    "priority": 0,
    "areaCodes": [],
    "label": "Libya (‫ليبيا‬‎)",
    "id": "ly",
    "currencyName": "Libyan Dinar",
    "currencyCode": "LYD",
    "icn": "flags/ly.png"
  },
  {
    "dialCode": "423",
    "priority": 0,
    "areaCodes": [],
    "label": "Liechtenstein",
    "id": "li",
    "currencyName": "Swiss Franc",
    "currencyCode": "CHF",
    "icn": "flags/li.png"
  },
  {
    "dialCode": "370",
    "priority": 0,
    "areaCodes": [],
    "label": "Lithuania (Lietuva)",
    "id": "lt",
    "currencyName": "Euro",
    "currencyCode": "EUR",
    "icn": "flags/lt.png"
  },
  {
    "dialCode": "352",
    "priority": 0,
    "areaCodes": [],
    "label": "Luxembourg",
    "id": "lu",
    "currencyName": "Euro",
    "currencyCode": "EUR",
    "icn": "flags/lu.png"
  },
  {
    "dialCode": "853",
    "priority": 0,
    "areaCodes": [],
    "label": "Macau (澳門)",
    "id": "mo",
    "currencyName": "Pataca",
    "currencyCode": "MOP",
    "icn": "flags/mo.png"
  },
  {
    "dialCode": "389",
    "priority": 0,
    "areaCodes": [],
    "label": "Macedonia (FYROM) (Македонија)",
    "id": "mk",
    "currencyName": "Denar",
    "currencyCode": "MKD",
    "icn": "flags/mk.png"
  },
  {
    "dialCode": "261",
    "priority": 0,
    "areaCodes": [],
    "label": "Madagascar (Madagasikara)",
    "id": "mg",
    "currencyName": "Malagasy Ariary",
    "currencyCode": "MGA",
    "icn": "flags/mg.png"
  },
  {
    "dialCode": "265",
    "priority": 0,
    "areaCodes": [],
    "label": "Malawi",
    "id": "mw",
    "currencyName": "Malawi Kwacha",
    "currencyCode": "MWK",
    "icn": "flags/mw.png"
  },
  {
    "dialCode": "60",
    "priority": 0,
    "areaCodes": [],
    "label": "Malaysia",
    "id": "my",
    "currencyName": "Malaysian Ringgit",
    "currencyCode": "MYR",
    "icn": "flags/my.png"
  },
  {
    "dialCode": "960",
    "priority": 0,
    "areaCodes": [],
    "label": "Maldives",
    "id": "mv",
    "currencyName": "Rufiyaa",
    "currencyCode": "MVR",
    "icn": "flags/mv.png"
  },
  {
    "dialCode": "223",
    "priority": 0,
    "areaCodes": [],
    "label": "Mali",
    "id": "ml",
    "currencyName": "CFA Franc BCEAO",
    "currencyCode": "XOF",
    "icn": "flags/ml.png"
  },
  {
    "dialCode": "356",
    "priority": 0,
    "areaCodes": [],
    "label": "Malta",
    "id": "mt",
    "currencyName": "Euro",
    "currencyCode": "EUR",
    "icn": "flags/mt.png"
  },
  {
    "dialCode": "692",
    "priority": 0,
    "areaCodes": [],
    "label": "Marshall Islands",
    "id": "mh",
    "currencyName": "US Dollar",
    "currencyCode": "USD",
    "icn": "flags/mh.png"
  },
  {
    "dialCode": "596",
    "priority": 0,
    "areaCodes": [],
    "label": "Martinique",
    "id": "mq",
    "currencyName": "Euro",
    "currencyCode": "EUR",
    "icn": "flags/mq.png"
  },
  {
    "dialCode": "222",
    "priority": 0,
    "areaCodes": [],
    "label": "Mauritania (‫موريتانيا‬‎)",
    "id": "mr",
    "currencyName": "Ouguiya",
    "currencyCode": "MRU",
    "icn": "flags/mr.png"
  },
  {
    "dialCode": "230",
    "priority": 0,
    "areaCodes": [],
    "label": "Mauritius (Moris)",
    "id": "mu",
    "currencyName": "Mauritius Rupee",
    "currencyCode": "MUR",
    "icn": "flags/mu.png"
  },
  {
    "dialCode": "262",
    "priority": 1,
    "areaCodes": [],
    "label": "Mayotte",
    "id": "yt",
    "currencyName": "Euro",
    "currencyCode": "EUR",
    "icn": "flags/yt.png"
  },
  {
    "dialCode": "52",
    "priority": 0,
    "areaCodes": [],
    "label": "Mexico (México)",
    "id": "mx",
    "currencyName": "Mexican Peso",
    "currencyCode": "MXN",
    "icn": "flags/mx.png"
  },
  {
    "dialCode": "691",
    "priority": 0,
    "areaCodes": [],
    "label": "Micronesia",
    "id": "fm",
    "currencyName": "US Dollar",
    "currencyCode": "USD",
    "icn": "flags/fm.png"
  },
  {
    "dialCode": "373",
    "priority": 0,
    "areaCodes": [],
    "label": "Moldova (Republica Moldova)",
    "id": "md",
    "currencyName": "Moldovan Leu",
    "currencyCode": "MDL",
    "icn": "flags/md.png"
  },
  {
    "dialCode": "377",
    "priority": 0,
    "areaCodes": [],
    "label": "Monaco",
    "id": "mc",
    "currencyName": "Euro",
    "currencyCode": "EUR",
    "icn": "flags/mc.png"
  },
  {
    "dialCode": "976",
    "priority": 0,
    "areaCodes": [],
    "label": "Mongolia (Монгол)",
    "id": "mn",
    "currencyName": "Tugrik",
    "currencyCode": "MNT",
    "icn": "flags/mn.png"
  },
  {
    "dialCode": "382",
    "priority": 0,
    "areaCodes": [],
    "label": "Montenegro (Crna Gora)",
    "id": "me",
    "currencyName": "Euro",
    "currencyCode": "EUR",
    "icn": "flags/me.png"
  },
  {
    "dialCode": "1664",
    "priority": 0,
    "areaCodes": [],
    "label": "Montserrat",
    "id": "ms",
    "currencyName": "East Caribbean Dollar",
    "currencyCode": "XCD",
    "icn": "flags/ms.png"
  },
  {
    "dialCode": "212",
    "priority": 0,
    "areaCodes": [],
    "label": "Morocco (‫المغرب‬‎)",
    "id": "ma",
    "currencyName": "Moroccan Dirham",
    "currencyCode": "MAD",
    "icn": "flags/ma.png"
  },
  {
    "dialCode": "258",
    "priority": 0,
    "areaCodes": [],
    "label": "Mozambique (Moçambique)",
    "id": "mz",
    "currencyName": "Mozambique Metical",
    "currencyCode": "MZN",
    "icn": "flags/mz.png"
  },
  {
    "dialCode": "95",
    "priority": 0,
    "areaCodes": [],
    "label": "Myanmar (Burma)",
    "id": "mm",
    "currencyName": "Kyat",
    "currencyCode": "MMK",
    "icn": "flags/mm.png"
  },
  {
    "dialCode": "264",
    "priority": 0,
    "areaCodes": [],
    "label": "Namibia (Namibië)",
    "id": "na",
    "currencyName": "Namibia Dollar",
    "currencyCode": "NAD",
    "icn": "flags/na.png"
  },
  {
    "dialCode": "674",
    "priority": 0,
    "areaCodes": [],
    "label": "Nauru",
    "id": "nr",
    "currencyName": "Australian Dollar",
    "currencyCode": "AUD",
    "icn": "flags/nr.png"
  },
  {
    "dialCode": "977",
    "priority": 0,
    "areaCodes": [],
    "label": "Nepal (नेपाल)",
    "id": "np",
    "currencyName": "Nepalese Rupee",
    "currencyCode": "NPR",
    "icn": "flags/np.png"
  },
  {
    "dialCode": "31",
    "priority": 0,
    "areaCodes": [],
    "label": "Netherlands (Nederland)",
    "id": "nl",
    "currencyName": "Euro",
    "currencyCode": "EUR",
    "icn": "flags/nl.png"
  },
  {
    "dialCode": "687",
    "priority": 0,
    "areaCodes": [],
    "label": "New Caledonia (Nouvelle-Calédonie)",
    "id": "nc",
    "currencyName": "CFP Franc",
    "currencyCode": "XPF",
    "icn": "flags/nc.png"
  },
  {
    "dialCode": "64",
    "priority": 0,
    "areaCodes": [],
    "label": "New Zealand",
    "id": "nz",
    "currencyName": "New Zealand Dollar",
    "currencyCode": "NZD",
    "icn": "flags/nz.png"
  },
  {
    "dialCode": "505",
    "priority": 0,
    "areaCodes": [],
    "label": "Nicaragua",
    "id": "ni",
    "currencyName": "Cordoba Oro",
    "currencyCode": "NIO",
    "icn": "flags/ni.png"
  },
  {
    "dialCode": "227",
    "priority": 0,
    "areaCodes": [],
    "label": "Niger (Nijar)",
    "id": "ne",
    "currencyName": "CFA Franc BCEAO",
    "currencyCode": "XOF",
    "icn": "flags/ne.png"
  },
  {
    "dialCode": "234",
    "priority": 0,
    "areaCodes": [],
    "label": "Nigeria",
    "id": "ng",
    "currencyName": "CFA Franc BCEAO",
    "currencyCode": "XOF",
    "icn": "flags/ng.png"
  },
  {
    "dialCode": "683",
    "priority": 0,
    "areaCodes": [],
    "label": "Niue",
    "id": "nu",
    "currencyName": "New Zealand Dollar",
    "currencyCode": "NZD",
    "icn": "flags/nu.png"
  },
  {
    "dialCode": "672",
    "priority": 0,
    "areaCodes": [],
    "label": "Norfolk Island",
    "id": "nf",
    "currencyName": "Australian Dollar",
    "currencyCode": "AUD",
    "icn": "flags/nf.png"
  },
  {
    "dialCode": "850",
    "priority": 0,
    "areaCodes": [],
    "label": "North Korea (조선 민주주의 인민 공화국)",
    "id": "kp",
    "currencyName": "North Korean Won",
    "currencyCode": "KPW",
    "icn": "flags/kp.png"
  },
  {
    "dialCode": "1670",
    "priority": 0,
    "areaCodes": [],
    "label": "Northern Mariana Islands",
    "id": "mp",
    "currencyName": "US Dollar",
    "currencyCode": "USD",
    "icn": "flags/mp.png"
  },
  {
    "dialCode": "47",
    "priority": 0,
    "areaCodes": [],
    "label": "Norway (Norge)",
    "id": "no",
    "currencyName": "Norwegian Krone",
    "currencyCode": "NOK",
    "icn": "flags/no.png"
  },
  {
    "dialCode": "968",
    "priority": 0,
    "areaCodes": [],
    "label": "Oman (‫عُمان‬‎)",
    "id": "om",
    "currencyName": "Rial Omani",
    "currencyCode": "OMR",
    "icn": "flags/om.png"
  },
  {
    "dialCode": "92",
    "priority": 0,
    "areaCodes": [],
    "label": "Pakistan (‫پاکستان‬‎)",
    "id": "pk",
    "currencyName": "Pakistan Rupee",
    "currencyCode": "PKR",
    "icn": "flags/pk.png"
  },
  {
    "dialCode": "680",
    "priority": 0,
    "areaCodes": [],
    "label": "Palau",
    "id": "pw",
    "currencyName": "US Dollar",
    "currencyCode": "USD",
    "icn": "flags/pw.png"
  },
  {
    "dialCode": "970",
    "priority": 0,
    "areaCodes": [],
    "label": "Palestine (‫فلسطين‬‎)",
    "id": "ps",
    "currencyName": "No universal currency",
    "currencyCode": "",
    "icn": "flags/ps.png"
  },
  {
    "dialCode": "507",
    "priority": 0,
    "areaCodes": [],
    "label": "Panama (Panamá)",
    "id": "pa",
    "currencyName": "Balboa",
    "currencyCode": "PAB",
    "icn": "flags/pa.png"
  },
  {
    "dialCode": "675",
    "priority": 0,
    "areaCodes": [],
    "label": "Papua New Guinea",
    "id": "pg",
    "currencyName": "Guinean Franc",
    "currencyCode": "GNF",
    "icn": "flags/pg.png"
  },
  {
    "dialCode": "595",
    "priority": 0,
    "areaCodes": [],
    "label": "Paraguay",
    "id": "py",
    "currencyName": "Guarani",
    "currencyCode": "PYG",
    "icn": "flags/py.png"
  },
  {
    "dialCode": "51",
    "priority": 0,
    "areaCodes": [],
    "label": "Peru (Perú)",
    "id": "pe",
    "currencyName": "Sol",
    "currencyCode": "PEN",
    "icn": "flags/pe.png"
  },
  {
    "dialCode": "63",
    "priority": 0,
    "areaCodes": [],
    "label": "Philippines",
    "id": "ph",
    "currencyName": "Philippine Peso",
    "currencyCode": "PHP",
    "icn": "flags/ph.png"
  },
  {
    "dialCode": "48",
    "priority": 0,
    "areaCodes": [],
    "label": "Poland (Polska)",
    "id": "pl",
    "currencyName": "Zloty",
    "currencyCode": "PLN",
    "icn": "flags/pl.png"
  },
  {
    "dialCode": "351",
    "priority": 0,
    "areaCodes": [],
    "label": "Portugal",
    "id": "pt",
    "currencyName": "Euro",
    "currencyCode": "EUR",
    "icn": "flags/pt.png"
  },
  {
    "dialCode": "1",
    "priority": 3,
    "areaCodes": ["787", "939"],
    "label": "Puerto Rico",
    "id": "pr",
    "currencyName": "US Dollar",
    "currencyCode": "USD",
    "icn": "flags/pr.png"
  },
  {
    "dialCode": "974",
    "priority": 0,
    "areaCodes": [],
    "label": "Qatar (‫قطر‬‎)",
    "id": "qa",
    "currencyName": "Qatari Rial",
    "currencyCode": "QAR",
    "icn": "flags/qa.png"
  },
  {
    "dialCode": "262",
    "priority": 0,
    "areaCodes": [],
    "label": "Réunion (La Réunion)",
    "id": "re",
    "currencyName": "Euro",
    "currencyCode": "EUR",
    "icn": "flags/re.png"
  },
  {
    "dialCode": "40",
    "priority": 0,
    "areaCodes": [],
    "label": "Romania (România)",
    "id": "ro",
    "currencyName": "Rial Omani",
    "currencyCode": "OMR",
    "icn": "flags/ro.png"
  },
  {
    "dialCode": "7",
    "priority": 0,
    "areaCodes": [],
    "label": "Russia (Россия)",
    "id": "ru",
    "currencyName": "Russian Ruble",
    "currencyCode": "RUB",
    "icn": "flags/ru.png"
  },
  {
    "dialCode": "250",
    "priority": 0,
    "areaCodes": [],
    "label": "Rwanda",
    "id": "rw",
    "currencyName": "Rwanda Franc",
    "currencyCode": "RWF",
    "icn": "flags/rw.png"
  },
  {
    "dialCode": "590",
    "priority": 1,
    "areaCodes": [],
    "label": "Saint Barthélemy (Saint-Barthélemy)",
    "id": "bl",
    "currencyName": "Euro",
    "currencyCode": "EUR",
    "icn": "flags/bl.png"
  },
  {
    "dialCode": "290",
    "priority": 0,
    "areaCodes": [],
    "label": "Saint Helena",
    "id": "sh",
    "currencyName": "Saint Helena Pound",
    "currencyCode": "SHP",
    "icn": "flags/sh.png"
  },
  {
    "dialCode": "1869",
    "priority": 0,
    "areaCodes": [],
    "label": "Saint Kitts and Nevis",
    "id": "kn",
    "currencyName": "East Caribbean Dollar",
    "currencyCode": "XCD",
    "icn": "flags/kn.png"
  },
  {
    "dialCode": "1758",
    "priority": 0,
    "areaCodes": [],
    "label": "Saint Lucia",
    "id": "lc",
    "currencyName": "East Caribbean Dollar",
    "currencyCode": "XCD",
    "icn": "flags/lc.png"
  },
  {
    "dialCode": "590",
    "priority": 2,
    "areaCodes": [],
    "label": "Saint Martin (Saint-Martin (partie française))",
    "id": "mf",
    "currencyName": "Euro",
    "currencyCode": "EUR",
    "icn": "flags/mf.png"
  },
  {
    "dialCode": "508",
    "priority": 0,
    "areaCodes": [],
    "label": "Saint Pierre and Miquelon (Saint-Pierre-et-Miquelon)",
    "id": "pm",
    "currencyName": "Euro",
    "currencyCode": "EUR",
    "icn": "flags/pm.png"
  },
  {
    "dialCode": "1784",
    "priority": 0,
    "areaCodes": [],
    "label": "Saint Vincent and the Grenadines",
    "id": "vc",
    "currencyName": "East Caribbean Dollar",
    "currencyCode": "XCD",
    "icn": "flags/vc.png"
  },
  {
    "dialCode": "685",
    "priority": 0,
    "areaCodes": [],
    "label": "Samoa",
    "id": "ws",
    "currencyName": "Tala",
    "currencyCode": "WST",
    "icn": "flags/ws.png"
  },
  {
    "dialCode": "378",
    "priority": 0,
    "areaCodes": [],
    "label": "San Marino",
    "id": "sm",
    "currencyName": "Euro",
    "currencyCode": "EUR",
    "icn": "flags/sm.png"
  },
  {
    "dialCode": "239",
    "priority": 0,
    "areaCodes": [],
    "label": "São Tomé and Príncipe (São Tomé e Príncipe)",
    "id": "st",
    "currencyName": "undefined",
    "currencyCode": "undefined",
    "icn": "flags/st.png"
  },
  {
    "dialCode": "966",
    "priority": 0,
    "areaCodes": [],
    "label": "Saudi Arabia (‫المملكة العربية السعودية‬‎)",
    "id": "sa",
    "currencyName": "Saudi Riyal",
    "currencyCode": "SAR",
    "icn": "flags/sa.png"
  },
  {
    "dialCode": "221",
    "priority": 0,
    "areaCodes": [],
    "label": "Senegal (Sénégal)",
    "id": "sn",
    "currencyName": "CFA Franc BCEAO",
    "currencyCode": "XOF",
    "icn": "flags/sn.png"
  },
  {
    "dialCode": "381",
    "priority": 0,
    "areaCodes": [],
    "label": "Serbia (Србија)",
    "id": "rs",
    "currencyName": "Serbian Dinar",
    "currencyCode": "RSD",
    "icn": "flags/rs.png"
  },
  {
    "dialCode": "248",
    "priority": 0,
    "areaCodes": [],
    "label": "Seychelles",
    "id": "sc",
    "currencyName": "Seychelles Rupee",
    "currencyCode": "SCR",
    "icn": "flags/sc.png"
  },
  {
    "dialCode": "232",
    "priority": 0,
    "areaCodes": [],
    "label": "Sierra Leone",
    "id": "sl",
    "currencyName": "Leone",
    "currencyCode": "SLL",
    "icn": "flags/sl.png"
  },
  {
    "dialCode": "65",
    "priority": 0,
    "areaCodes": [],
    "label": "Singapore",
    "id": "sg",
    "currencyName": "Singapore Dollar",
    "currencyCode": "SGD",
    "icn": "flags/sg.png"
  },
  {
    "dialCode": "1721",
    "priority": 0,
    "areaCodes": [],
    "label": "Sint Maarten",
    "id": "sx",
    "currencyName": "Netherlands Antillean Guilder",
    "currencyCode": "ANG",
    "icn": "flags/sx.png"
  },
  {
    "dialCode": "421",
    "priority": 0,
    "areaCodes": [],
    "label": "Slovakia (Slovensko)",
    "id": "sk",
    "currencyName": "Euro",
    "currencyCode": "EUR",
    "icn": "flags/sk.png"
  },
  {
    "dialCode": "386",
    "priority": 0,
    "areaCodes": [],
    "label": "Slovenia (Slovenija)",
    "id": "si",
    "currencyName": "Euro",
    "currencyCode": "EUR",
    "icn": "flags/si.png"
  },
  {
    "dialCode": "677",
    "priority": 0,
    "areaCodes": [],
    "label": "Solomon Islands",
    "id": "sb",
    "currencyName": "Solomon Islands Dollar",
    "currencyCode": "SBD",
    "icn": "flags/sb.png"
  },
  {
    "dialCode": "252",
    "priority": 0,
    "areaCodes": [],
    "label": "Somalia (Soomaaliya)",
    "id": "so",
    "currencyName": "CFA Franc BCEAO",
    "currencyCode": "XOF",
    "icn": "flags/so.png"
  },
  {
    "dialCode": "27",
    "priority": 0,
    "areaCodes": [],
    "label": "South Africa",
    "id": "za",
    "currencyName": "Rand",
    "currencyCode": "ZAR",
    "icn": "flags/za.png"
  },
  {
    "dialCode": "82",
    "priority": 0,
    "areaCodes": [],
    "label": "South Korea (대한민국)",
    "id": "kr",
    "currencyName": "Won",
    "currencyCode": "KRW",
    "icn": "flags/kr.png"
  },
  {
    "dialCode": "211",
    "priority": 0,
    "areaCodes": [],
    "label": "South Sudan (‫جنوب السودان‬‎)",
    "id": "ss",
    "currencyName": "South Sudanese Pound",
    "currencyCode": "SSP",
    "icn": "flags/ss.png"
  },
  {
    "dialCode": "34",
    "priority": 0,
    "areaCodes": [],
    "label": "Spain (España)",
    "id": "es",
    "currencyName": "Euro",
    "currencyCode": "EUR",
    "icn": "flags/es.png"
  },
  {
    "dialCode": "94",
    "priority": 0,
    "areaCodes": [],
    "label": "Sri Lanka (ශ්‍රී ලංකාව)",
    "id": "lk",
    "currencyName": "Sri Lanka Rupee",
    "currencyCode": "LKR",
    "icn": "flags/lk.png"
  },
  {
    "dialCode": "249",
    "priority": 0,
    "areaCodes": [],
    "label": "Sudan (‫السودان‬‎)",
    "id": "sd",
    "currencyName": "Sudanese Pound",
    "currencyCode": "SDG",
    "icn": "flags/sd.png"
  },
  {
    "dialCode": "597",
    "priority": 0,
    "areaCodes": [],
    "label": "Suriname",
    "id": "sr",
    "currencyName": "Surinam Dollar",
    "currencyCode": "SRD",
    "icn": "flags/sr.png"
  },
  {
    "dialCode": "47",
    "priority": 1,
    "areaCodes": [],
    "label": "Svalbard and Jan Mayen",
    "id": "sj",
    "currencyName": "Norwegian Krone",
    "currencyCode": "NOK",
    "icn": "flags/sj.png"
  },
  {
    "dialCode": "268",
    "priority": 0,
    "areaCodes": [],
    "label": "Swaziland",
    "id": "sz",
    "currencyName": "Lilangeni",
    "currencyCode": "SZL",
    "icn": "flags/sz.png"
  },
  {
    "dialCode": "46",
    "priority": 0,
    "areaCodes": [],
    "label": "Sweden (Sverige)",
    "id": "se",
    "currencyName": "Swedish Krona",
    "currencyCode": "SEK",
    "icn": "flags/se.png"
  },
  {
    "dialCode": "41",
    "priority": 0,
    "areaCodes": [],
    "label": "Switzerland (Schweiz)",
    "id": "ch",
    "currencyName": "Swiss Franc",
    "currencyCode": "CHF",
    "icn": "flags/ch.png"
  },
  {
    "dialCode": "963",
    "priority": 0,
    "areaCodes": [],
    "label": "Syria (‫سوريا‬‎)",
    "id": "sy",
    "currencyName": "Syrian Pound",
    "currencyCode": "SYP",
    "icn": "flags/sy.png"
  },
  {
    "dialCode": "886",
    "priority": 0,
    "areaCodes": [],
    "label": "Taiwan (台灣)",
    "id": "tw",
    "currencyName": "New Taiwan Dollar",
    "currencyCode": "TWD",
    "icn": "flags/tw.png"
  },
  {
    "dialCode": "992",
    "priority": 0,
    "areaCodes": [],
    "label": "Tajikistan",
    "id": "tj",
    "currencyName": "Somoni",
    "currencyCode": "TJS",
    "icn": "flags/tj.png"
  },
  {
    "dialCode": "255",
    "priority": 0,
    "areaCodes": [],
    "label": "Tanzania",
    "id": "tz",
    "currencyName": "Tanzanian Shilling",
    "currencyCode": "TZS",
    "icn": "flags/tz.png"
  },
  {
    "dialCode": "66",
    "priority": 0,
    "areaCodes": [],
    "label": "Thailand (ไทย)",
    "id": "th",
    "currencyName": "Baht",
    "currencyCode": "THB",
    "icn": "flags/th.png"
  },
  {
    "dialCode": "670",
    "priority": 0,
    "areaCodes": [],
    "label": "Timor-Leste",
    "id": "tl",
    "currencyName": "US Dollar",
    "currencyCode": "USD",
    "icn": "flags/tl.png"
  },
  {
    "dialCode": "228",
    "priority": 0,
    "areaCodes": [],
    "label": "Togo",
    "id": "tg",
    "currencyName": "CFA Franc BCEAO",
    "currencyCode": "XOF",
    "icn": "flags/tg.png"
  },
  {
    "dialCode": "690",
    "priority": 0,
    "areaCodes": [],
    "label": "Tokelau",
    "id": "tk",
    "currencyName": "New Zealand Dollar",
    "currencyCode": "NZD",
    "icn": "flags/tk.png"
  },
  {
    "dialCode": "676",
    "priority": 0,
    "areaCodes": [],
    "label": "Tonga",
    "id": "to",
    "currencyName": "Pa’anga",
    "currencyCode": "TOP",
    "icn": "flags/to.png"
  },
  {
    "dialCode": "1868",
    "priority": 0,
    "areaCodes": [],
    "label": "Trinidad and Tobago",
    "id": "tt",
    "currencyName": "Trinidad and Tobago Dollar",
    "currencyCode": "TTD",
    "icn": "flags/tt.png"
  },
  {
    "dialCode": "216",
    "priority": 0,
    "areaCodes": [],
    "label": "Tunisia (‫تونس‬‎)",
    "id": "tn",
    "currencyName": "Tunisian Dinar",
    "currencyCode": "TND",
    "icn": "flags/tn.png"
  },
  {
    "dialCode": "90",
    "priority": 0,
    "areaCodes": [],
    "label": "Turkey (Türkiye)",
    "id": "tr",
    "currencyName": "Turkish Lira",
    "currencyCode": "TRY",
    "icn": "flags/tr.png"
  },
  {
    "dialCode": "993",
    "priority": 0,
    "areaCodes": [],
    "label": "Turkmenistan",
    "id": "tm",
    "currencyName": "Turkmenistan New Manat",
    "currencyCode": "TMT",
    "icn": "flags/tm.png"
  },
  {
    "dialCode": "1649",
    "priority": 0,
    "areaCodes": [],
    "label": "Turks and Caicos Islands",
    "id": "tc",
    "currencyName": "US Dollar",
    "currencyCode": "USD",
    "icn": "flags/tc.png"
  },
  {
    "dialCode": "688",
    "priority": 0,
    "areaCodes": [],
    "label": "Tuvalu",
    "id": "tv",
    "currencyName": "Australian Dollar",
    "currencyCode": "AUD",
    "icn": "flags/tv.png"
  },
  {
    "dialCode": "1340",
    "priority": 0,
    "areaCodes": [],
    "label": "U.S. Virgin Islands",
    "id": "vi",
    "currencyName": "US Dollar",
    "currencyCode": "USD",
    "icn": "flags/vi.png"
  },
  {
    "dialCode": "256",
    "priority": 0,
    "areaCodes": [],
    "label": "Uganda",
    "id": "ug",
    "currencyName": "Uganda Shilling",
    "currencyCode": "UGX",
    "icn": "flags/ug.png"
  },
  {
    "dialCode": "380",
    "priority": 0,
    "areaCodes": [],
    "label": "Ukraine (Україна)",
    "id": "ua",
    "currencyName": "Hryvnia",
    "currencyCode": "UAH",
    "icn": "flags/ua.png"
  },
  {
    "dialCode": "971",
    "priority": 0,
    "areaCodes": [],
    "label": "United Arab Emirates (‫الإمارات العربية المتحدة‬‎)",
    "id": "ae",
    "currencyName": "UAE Dirham",
    "currencyCode": "AED",
    "icn": "flags/ae.png"
  },
  {
    "dialCode": "44",
    "priority": 0,
    "areaCodes": [],
    "label": "United Kingdom",
    "id": "gb",
    "currencyName": "Pound Sterling",
    "currencyCode": "GBP",
    "icn": "flags/gb.png"
  },
  {
    "dialCode": "1",
    "priority": 0,
    "areaCodes": [],
    "label": "United States",
    "id": "us",
    "currencyName": "US Dollar",
    "currencyCode": "USD",
    "icn": "flags/us.png"
  },
  {
    "dialCode": "598",
    "priority": 0,
    "areaCodes": [],
    "label": "Uruguay",
    "id": "uy",
    "currencyName": "Peso Uruguayo",
    "currencyCode": "UYU",
    "icn": "flags/uy.png"
  },
  {
    "dialCode": "998",
    "priority": 0,
    "areaCodes": [],
    "label": "Uzbekistan (Oʻzbekiston)",
    "id": "uz",
    "currencyName": "Uzbekistan Sum",
    "currencyCode": "UZS",
    "icn": "flags/uz.png"
  },
  {
    "dialCode": "678",
    "priority": 0,
    "areaCodes": [],
    "label": "Vanuatu",
    "id": "vu",
    "currencyName": "Vatu",
    "currencyCode": "VUV",
    "icn": "flags/vu.png"
  },
  {
    "dialCode": "39",
    "priority": 1,
    "areaCodes": [],
    "label": "Vatican City (Città del Vaticano)",
    "id": "va",
    "currencyName": "Euro",
    "currencyCode": "EUR",
    "icn": "flags/va.png"
  },
  {
    "dialCode": "58",
    "priority": 0,
    "areaCodes": [],
    "label": "Venezuela",
    "id": "ve",
    "currencyName": "Bolívar Soberano",
    "currencyCode": "VES",
    "icn": "flags/ve.png"
  },
  {
    "dialCode": "84",
    "priority": 0,
    "areaCodes": [],
    "label": "Vietnam (Việt Nam)",
    "id": "vn",
    "currencyName": "Dong",
    "currencyCode": "VND",
    "icn": "flags/vn.png"
  },
  {
    "dialCode": "681",
    "priority": 0,
    "areaCodes": [],
    "label": "Wallis and Futuna",
    "id": "wf",
    "currencyName": "CFP Franc",
    "currencyCode": "XPF",
    "icn": "flags/wf.png"
  },
  {
    "dialCode": "212",
    "priority": 1,
    "areaCodes": [],
    "label": "Western Sahara (‫الصحراء الغربية‬‎)",
    "id": "eh",
    "currencyName": "Moroccan Dirham",
    "currencyCode": "MAD",
    "icn": "flags/eh.png"
  },
  {
    "dialCode": "967",
    "priority": 0,
    "areaCodes": [],
    "label": "Yemen (‫اليمن‬‎)",
    "id": "ye",
    "currencyName": "Yemeni Rial",
    "currencyCode": "YER",
    "icn": "flags/ye.png"
  },
  {
    "dialCode": "260",
    "priority": 0,
    "areaCodes": [],
    "label": "Zambia",
    "id": "zm",
    "currencyName": "Zambian Kwacha",
    "currencyCode": "ZMW",
    "icn": "flags/zm.png"
  },
  {
    "dialCode": "263",
    "priority": 0,
    "areaCodes": [],
    "label": "Zimbabwe",
    "id": "zw",
    "currencyName": "Zimbabwe Dollar",
    "currencyCode": "ZWL",
    "icn": "flags/zw.png"
  },
  {
    "dialCode": "358",
    "priority": 1,
    "areaCodes": [],
    "label": "Åland Islands",
    "id": "ax",
    "currencyName": "Euro",
    "currencyCode": "EUR",
    "icn": "flags/ax.png"
  }
]
